ANIK D1 (TELESAT 6)     
1 13431U 82082A   26117.01816796 -.00000382  00000+0  00000+0 0  9999
2 13431  12.2675 333.2766 0007152 349.6237  25.2609  1.00124111 46090
EKRAN 9                 
1 13554U 82093A   26117.01279461 -.00000324  00000+0  00000+0 0  9995
2 13554   7.2013 300.0548 0027631   9.6773   9.4474  1.00235698119490
GORIZONT 6              
1 13624U 82103A   26116.74525025  .00000067  00000+0  00000+0 0  9997
2 13624   7.4519 302.2761 0002954 358.8039  10.4462  1.00278265120439
SL-12 R/B(2)            
1 13630U 82103E   26116.87854737 -.00000287  00000+0  00000+0 0  9998
2 13630   7.4113 302.1532 0010989 189.7309 180.8839  1.00336886120994
SATCOM C5               
1 13631U 82105A   26117.27271262 -.00000116  00000+0  00000+0 0  9993
2 13631  12.1565 332.8445 0006088  48.1220 186.4602  1.00273561125868
TITAN 34D IUS R/B(2)    
1 13643U 82106D   26116.87776737 -.00000351  00000+0  00000+0 0  9990
2 13643   9.4696 310.5495 0040490  66.9601 291.3350  0.99385592119245
SBS 3                   
1 13651U 82110B   26116.88036740 -.00000285  00000+0  00000+0 0  9994
2 13651  12.5581 334.7373 0006438 105.9380 241.5244  0.99940352 46022
ANIK C3 (TELESAT 5)     
1 13652U 82110C   26116.78529043  .00000086  00000+0  00000+0 0  9995
2 13652  12.5325 334.5526 0001757  29.1161 164.7929  0.99906141 45999
SAKURA-2A (CS-2A)       
1 13782U 83006A   26116.94883434 -.00000356  00000+0  00000+0 0  9990
2 13782  10.3716 320.8017 0011526 335.2988  36.9238  0.99409584127341
MOLNIYA 3-20            
1 13875U 83015A   26117.13562767  .00000207  00000+0  00000+0 0  9992
2 13875  61.9357 152.7583 7097067 271.2457  15.7363  2.00390227251998
SL-6 R/B(2)             
1 13882U 83015E   26116.12585066 -.00000916  00000+0  24467-2 0  9999
2 13882  62.0306 227.6377 7209733 269.1067  15.5599  1.96897835309920
MOLNIYA 1-56            
1 13890U 83019A   26113.12313338 -.00000983  00000+0  00000+0 0  9998
2 13890  62.5368 176.9491 6997595 274.0919  15.5725  1.99994554314718
SL-6 R/B(2)             
1 13897U 83019D   26117.05595881 -.00000673  00000+0  00000+0 0  9992
2 13897  62.6915 208.5352 7080574 277.0382  14.0292  1.97361444309621
ASTRON                  
1 13901U 83020A   26117.49634538 -.00000763  00000+0  00000+0 0  9991
2 13901  78.2639  57.7239 6721955  51.3010 358.4704  0.24293704 11025
RADUGA 12               
1 13974U 83028A   26117.04677696 -.00000057  00000+0  00000+0 0  9998
2 13974   8.3026 306.6594 0002066  12.3930 341.5341  1.00254233168860
SL-12 R/B(2)            
1 13983U 83028F   26117.21711356  .00000022  00000+0  00000+0 0  9990
2 13983   8.3321 306.7226 0023362 222.5956 137.7782  1.00058091157301
SATCOM 1R               
1 13984U 83030A   26113.29154780  .00000080  00000+0  00000+0 0  9994
2 13984  13.2549 338.9121 0006148 112.5697 255.8586  0.99853088129931
