[{"OBJECT_NAME":"ANIK D1 (TELESAT 6)","OBJECT_ID":"1982-082A","EPOCH":"2026-04-27T00:26:09.711744","MEAN_MOTION":1.00124111,"ECCENTRICITY":0.00071529,"INCLINATION":12.2675,"RA_OF_ASC_NODE":333.2766,"ARG_OF_PERICENTER":349.6237,"MEAN_ANOMALY":25.2609,"EPHEMERIS_TYPE":0,"CLASSIFICATION_TYPE":"U","NORAD_CAT_ID":13431,"ELEMENT_SET_NO":999,"REV_AT_EPOCH":4609,"BSTAR":0,"MEAN_MOTION_DOT":-3.82e-6,"MEAN_MOTION_DDOT":0},{"OBJECT_NAME":"EKRAN 9","OBJECT_ID":"1982-093A","EPOCH":"2026-04-27T00:18:25.454304","MEAN_MOTION":1.00235698,"ECCENTRICITY":0.0027631,"INCLINATION":7.2013,"RA_OF_ASC_NODE":300.0548,"ARG_OF_PERICENTER":9.6773,"MEAN_ANOMALY":9.4474,"EPHEMERIS_TYPE":0,"CLASSIFICATION_TYPE":"U","NORAD_CAT_ID":13554,"ELEMENT_SET_NO":999,"REV_AT_EPOCH":11949,"BSTAR":0,"MEAN_MOTION_DOT":-3.24e-6,"MEAN_MOTION_DDOT":0},{"OBJECT_NAME":"GORIZONT 6","OBJECT_ID":"1982-103A","EPOCH":"2026-04-26T17:53:09.621600","MEAN_MOTION":1.00278265,"ECCENTRICITY":0.00029542,"INCLINATION":7.4519,"RA_OF_ASC_NODE":302.2761,"ARG_OF_PERICENTER":358.8039,"MEAN_ANOMALY":10.4462,"EPHEMERIS_TYPE":0,"CLASSIFICATION_TYPE":"U","NORAD_CAT_ID":13624,"ELEMENT_SET_NO":999,"REV_AT_EPOCH":12043,"BSTAR":0,"MEAN_MOTION_DOT":6.7e-7,"MEAN_MOTION_DDOT":0},{"OBJECT_NAME":"SL-12 R/B(2)","OBJECT_ID":"1982-103E","EPOCH":"2026-04-26T21:05:06.492768","MEAN_MOTION":1.00336886,"ECCENTRICITY":0.0010989,"INCLINATION":7.4113,"RA_OF_ASC_NODE":302.1532,"ARG_OF_PERICENTER":189.7309,"MEAN_ANOMALY":180.8839,"EPHEMERIS_TYPE":0,"CLASSIFICATION_TYPE":"U","NORAD_CAT_ID":13630,"ELEMENT_SET_NO":999,"REV_AT_EPOCH":12099,"BSTAR":0,"MEAN_MOTION_DOT":-2.87e-6,"MEAN_MOTION_DDOT":0},{"OBJECT_NAME":"SATCOM C5","OBJECT_ID":"1982-105A","EPOCH":"2026-04-27T06:32:42.370368","MEAN_MOTION":1.00273561,"ECCENTRICITY":0.00060882,"INCLINATION":12.1565,"RA_OF_ASC_NODE":332.8445,"ARG_OF_PERICENTER":48.122,"MEAN_ANOMALY":186.4602,"EPHEMERIS_TYPE":0,"CLASSIFICATION_TYPE":"U","NORAD_CAT_ID":13631,"ELEMENT_SET_NO":999,"REV_AT_EPOCH":12586,"BSTAR":0,"MEAN_MOTION_DOT":-1.16e-6,"MEAN_MOTION_DDOT":0},{"OBJECT_NAME":"TITAN 34D IUS R/B(2)","OBJECT_ID":"1982-106D","EPOCH":"2026-04-26T21:03:59.100768","MEAN_MOTION":0.99385592,"ECCENTRICITY":0.004049,"INCLINATION":9.4696,"RA_OF_ASC_NODE":310.5495,"ARG_OF_PERICENTER":66.9601,"MEAN_ANOMALY":291.335,"EPHEMERIS_TYPE":0,"CLASSIFICATION_TYPE":"U","NORAD_CAT_ID":13643,"ELEMENT_SET_NO":999,"REV_AT_EPOCH":11924,"BSTAR":0,"MEAN_MOTION_DOT":-3.51e-6,"MEAN_MOTION_DDOT":0},{"OBJECT_NAME":"SBS 3","OBJECT_ID":"1982-110B","EPOCH":"2026-04-26T21:07:43.743360","MEAN_MOTION":0.99940352,"ECCENTRICITY":0.0006438,"INCLINATION":12.5581,"RA_OF_ASC_NODE":334.7373,"ARG_OF_PERICENTER":105.938,"MEAN_ANOMALY":241.5244,"EPHEMERIS_TYPE":0,"CLASSIFICATION_TYPE":"U","NORAD_CAT_ID":13651,"ELEMENT_SET_NO":999,"REV_AT_EPOCH":4602,"BSTAR":0,"MEAN_MOTION_DOT":-2.85e-6,"MEAN_MOTION_DDOT":0},{"OBJECT_NAME":"ANIK C3 (TELESAT 5)","OBJECT_ID":"1982-110C","EPOCH":"2026-04-26T18:50:49.093152","MEAN_MOTION":0.99906141,"ECCENTRICITY":0.00017575,"INCLINATION":12.5325,"RA_OF_ASC_NODE":334.5526,"ARG_OF_PERICENTER":29.1161,"MEAN_ANOMALY":164.7929,"EPHEMERIS_TYPE":0,"CLASSIFICATION_TYPE":"U","NORAD_CAT_ID":13652,"ELEMENT_SET_NO":999,"REV_AT_EPOCH":4599,"BSTAR":0,"MEAN_MOTION_DOT":8.6e-7,"MEAN_MOTION_DDOT":0},{"OBJECT_NAME":"SAKURA-2A (CS-2A)","OBJECT_ID":"1983-006A","EPOCH":"2026-04-26T22:46:19.286976","MEAN_MOTION":0.99409584,"ECCENTRICITY":0.00115265,"INCLINATION":10.3716,"RA_OF_ASC_NODE":320.8017,"ARG_OF_PERICENTER":335.2988,"MEAN_ANOMALY":36.9238,"EPHEMERIS_TYPE":0,"CLASSIFICATION_TYPE":"U","NORAD_CAT_ID":13782,"ELEMENT_SET_NO":999,"REV_AT_EPOCH":12734,"BSTAR":0,"MEAN_MOTION_DOT":-3.56e-6,"MEAN_MOTION_DDOT":0},{"OBJECT_NAME":"MOLNIYA 3-20","OBJECT_ID":"1983-015A","EPOCH":"2026-04-27T03:15:18.230688","MEAN_MOTION":2.00390227,"ECCENTRICITY":0.70970679,"INCLINATION":61.9357,"RA_OF_ASC_NODE":152.7583,"ARG_OF_PERICENTER":271.2457,"MEAN_ANOMALY":15.7363,"EPHEMERIS_TYPE":0,"CLASSIFICATION_TYPE":"U","NORAD_CAT_ID":13875,"ELEMENT_SET_NO":999,"REV_AT_EPOCH":25199,"BSTAR":0,"MEAN_MOTION_DOT":2.07e-6,"MEAN_MOTION_DDOT":0},{"OBJECT_NAME":"SL-6 R/B(2)","OBJECT_ID":"1983-015E","EPOCH":"2026-04-26T03:01:13.497024","MEAN_MOTION":1.96897835,"ECCENTRICITY":0.72097338,"INCLINATION":62.0306,"RA_OF_ASC_NODE":227.6377,"ARG_OF_PERICENTER":269.1067,"MEAN_ANOMALY":15.5599,"EPHEMERIS_TYPE":0,"CLASSIFICATION_TYPE":"U","NORAD_CAT_ID":13882,"ELEMENT_SET_NO":999,"REV_AT_EPOCH":30992,"BSTAR":0.0024467147,"MEAN_MOTION_DOT":-9.16e-6,"MEAN_MOTION_DDOT":0},{"OBJECT_NAME":"MOLNIYA 1-56","OBJECT_ID":"1983-019A","EPOCH":"2026-04-23T02:57:18.724032","MEAN_MOTION":1.99994554,"ECCENTRICITY":0.69975956,"INCLINATION":62.5368,"RA_OF_ASC_NODE":176.9491,"ARG_OF_PERICENTER":274.0919,"MEAN_ANOMALY":15.5725,"EPHEMERIS_TYPE":0,"CLASSIFICATION_TYPE":"U","NORAD_CAT_ID":13890,"ELEMENT_SET_NO":999,"REV_AT_EPOCH":31471,"BSTAR":0,"MEAN_MOTION_DOT":-9.83e-6,"MEAN_MOTION_DDOT":0},{"OBJECT_NAME":"SL-6 R/B(2)","OBJECT_ID":"1983-019D","EPOCH":"2026-04-27T01:20:34.841184","MEAN_MOTION":1.97361444,"ECCENTRICITY":0.70805747,"INCLINATION":62.6915,"RA_OF_ASC_NODE":208.5352,"ARG_OF_PERICENTER":277.0382,"MEAN_ANOMALY":14.0292,"EPHEMERIS_TYPE":0,"CLASSIFICATION_TYPE":"U","NORAD_CAT_ID":13897,"ELEMENT_SET_NO":999,"REV_AT_EPOCH":30962,"BSTAR":0,"MEAN_MOTION_DOT":-6.73e-6,"MEAN_MOTION_DDOT":0},{"OBJECT_NAME":"ASTRON","OBJECT_ID":"1983-020A","EPOCH":"2026-04-27T11:54:44.240832","MEAN_MOTION":0.24293704,"ECCENTRICITY":0.67219553,"INCLINATION":78.2639,"RA_OF_ASC_NODE":57.7239,"ARG_OF_PERICENTER":51.301,"MEAN_ANOMALY":358.4704,"EPHEMERIS_TYPE":0,"CLASSIFICATION_TYPE":"U","NORAD_CAT_ID":13901,"ELEMENT_SET_NO":999,"REV_AT_EPOCH":1102,"BSTAR":0,"MEAN_MOTION_DOT":-7.63e-6,"MEAN_MOTION_DDOT":0},{"OBJECT_NAME":"RADUGA 12","OBJECT_ID":"1983-028A","EPOCH":"2026-04-27T01:07:21.529344","MEAN_MOTION":1.00254233,"ECCENTRICITY":0.00020661,"INCLINATION":8.3026,"RA_OF_ASC_NODE":306.6594,"ARG_OF_PERICENTER":12.393,"MEAN_ANOMALY":341.5341,"EPHEMERIS_TYPE":0,"CLASSIFICATION_TYPE":"U","NORAD_CAT_ID":13974,"ELEMENT_SET_NO":999,"REV_AT_EPOCH":16886,"BSTAR":0,"MEAN_MOTION_DOT":-5.7e-7,"MEAN_MOTION_DDOT":0},{"OBJECT_NAME":"SL-12 R/B(2)","OBJECT_ID":"1983-028F","EPOCH":"2026-04-27T05:12:38.611584","MEAN_MOTION":1.00058091,"ECCENTRICITY":0.0023362,"INCLINATION":8.3321,"RA_OF_ASC_NODE":306.7226,"ARG_OF_PERICENTER":222.5956,"MEAN_ANOMALY":137.7782,"EPHEMERIS_TYPE":0,"CLASSIFICATION_TYPE":"U","NORAD_CAT_ID":13983,"ELEMENT_SET_NO":999,"REV_AT_EPOCH":15730,"BSTAR":0,"MEAN_MOTION_DOT":2.2e-7,"MEAN_MOTION_DDOT":0},{"OBJECT_NAME":"SATCOM 1R","OBJECT_ID":"1983-030A","EPOCH":"2026-04-23T06:59:49.729920","MEAN_MOTION":0.99853088,"ECCENTRICITY":0.00061488,"INCLINATION":13.2549,"RA_OF_ASC_NODE":338.9121,"ARG_OF_PERICENTER":112.5697,"MEAN_ANOMALY":255.8586,"EPHEMERIS_TYPE":0,"CLASSIFICATION_TYPE":"U","NORAD_CAT_ID":13984,"ELEMENT_SET_NO":999,"REV_AT_EPOCH":12993,"BSTAR":0,"MEAN_MOTION_DOT":8.0e-7,"MEAN_MOTION_DDOT":0}]
